{
  "links" : {
    "next" : "https://api.nasa.gov/neo/rest/v1/feed?start_date=2010-11-23&end_date=2010-11-23&detailed=true&api_key=t0TVs3DtDT2H8Oy2Zy8m2eVrNsAVKAexjcZXUckd",
    "prev" : "https://api.nasa.gov/neo/rest/v1/feed?start_date=2010-11-21&end_date=2010-11-21&detailed=true&api_key=t0TVs3DtDT2H8Oy2Zy8m2eVrNsAVKAexjcZXUckd",
    "self" : "https://api.nasa.gov/neo/rest/v1/feed?start_date=2010-11-22&end_date=2010-11-22&detailed=true&api_key=t0TVs3DtDT2H8Oy2Zy8m2eVrNsAVKAexjcZXUckd"
  },
  "element_count" : 4,
  "near_earth_objects" : {
    "2010-11-22" : [ {
      "links" : {
        "self" : "https://api.nasa.gov/neo/rest/v1/neo/2006037?api_key=t0TVs3DtDT2H8Oy2Zy8m2eVrNsAVKAexjcZXUckd"
      },
      "neo_reference_id" : "2006037",
      "name" : "6037 (1988 EG)",
      "nasa_jpl_url" : "http://ssd.jpl.nasa.gov/sbdb.cgi?sstr=2006037",
      "absolute_magnitude_h" : 18.7,
      "estimated_diameter" : {
        "kilometers" : {
          "estimated_diameter_min" : 0.4836764882,
          "estimated_diameter_max" : 1.0815335068
        },
        "meters" : {
          "estimated_diameter_min" : 483.6764882185,
          "estimated_diameter_max" : 1081.533506775
        },
        "miles" : {
          "estimated_diameter_min" : 0.3005425432,
          "estimated_diameter_max" : 0.6720335566
        },
        "feet" : {
          "estimated_diameter_min" : 1586.8651696069,
          "estimated_diameter_max" : 3548.3383903678
        }
      },
      "is_potentially_hazardous_asteroid" : true,
      "close_approach_data" : [ {
        "close_approach_date" : "2010-11-22",
        "epoch_date_close_approach" : 1290412800000,
        "relative_velocity" : {
          "kilometers_per_second" : "15.5869442503",
          "kilometers_per_hour" : "56112.999301202",
          "miles_per_hour" : "34866.4355935719"
        },
        "miss_distance" : {
          "astronomical" : "0.3530972176",
          "lunar" : "137.3548278809",
          "kilometers" : "52822596",
          "miles" : "32822438"
        },
        "orbiting_body" : "Earth"
      } ],
      "orbital_data" : {
        "orbit_id" : "72",
        "orbit_determination_date" : "2017-07-25 06:18:17",
        "orbit_uncertainty" : "0",
        "minimum_orbit_intersection" : ".0242774",
        "jupiter_tisserand_invariant" : "4.948",
        "epoch_osculation" : "2458000.5",
        "eccentricity" : ".4997483753146983",
        "semi_major_axis" : "1.271143165206391",
        "inclination" : "3.499763217297274",
        "ascending_node_longitude" : "182.4811902376279",
        "orbital_period" : "523.4679864673953",
        "perihelion_distance" : ".6358914336021141",
        "perihelion_argument" : "242.0739299664936",
        "aphelion_distance" : "1.906394896810668",
        "perihelion_time" : "2458143.107808040914",
        "mean_anomaly" : "261.9255957920424",
        "mean_motion" : ".6877211392227572",
        "equinox" : "J2000"
      }
    }, {
      "links" : {
        "self" : "https://api.nasa.gov/neo/rest/v1/neo/2252091?api_key=t0TVs3DtDT2H8Oy2Zy8m2eVrNsAVKAexjcZXUckd"
      },
      "neo_reference_id" : "2252091",
      "name" : "252091 (2000 UP30)",
      "nasa_jpl_url" : "http://ssd.jpl.nasa.gov/sbdb.cgi?sstr=2252091",
      "absolute_magnitude_h" : 17.2,
      "estimated_diameter" : {
        "kilometers" : {
          "estimated_diameter_min" : 0.9650614696,
          "estimated_diameter_max" : 2.1579430484
        },
        "meters" : {
          "estimated_diameter_min" : 965.0614695789,
          "estimated_diameter_max" : 2157.9430484443
        },
        "miles" : {
          "estimated_diameter_min" : 0.5996612104,
          "estimated_diameter_max" : 1.34088323
        },
        "feet" : {
          "estimated_diameter_min" : 3166.2122718533,
          "estimated_diameter_max" : 7079.8658710581
        }
      },
      "is_potentially_hazardous_asteroid" : false,
      "close_approach_data" : [ {
        "close_approach_date" : "2010-11-22",
        "epoch_date_close_approach" : 1290412800000,
        "relative_velocity" : {
          "kilometers_per_second" : "32.0026332735",
          "kilometers_per_hour" : "115209.4797847368",
          "miles_per_hour" : "71586.6903695772"
        },
        "miss_distance" : {
          "astronomical" : "0.271641487",
          "lunar" : "105.6685409546",
          "kilometers" : "40636988",
          "miles" : "25250654"
        },
        "orbiting_body" : "Earth"
      } ],
      "orbital_data" : {
        "orbit_id" : "73",
        "orbit_determination_date" : "2017-09-27 06:52:17",
        "orbit_uncertainty" : "0",
        "minimum_orbit_intersection" : ".0670039",
        "jupiter_tisserand_invariant" : "3.152",
        "epoch_osculation" : "2458000.5",
        "eccentricity" : ".7612771255766104",
        "semi_major_axis" : "2.251834028130482",
        "inclination" : "9.362986149306851",
        "ascending_node_longitude" : "194.9632790633732",
        "orbital_period" : "1234.249594668934",
        "perihelion_distance" : ".5375642919197086",
        "perihelion_argument" : "118.8673958385672",
        "aphelion_distance" : "3.966103764341256",
        "perihelion_time" : "2457943.565449470070",
        "mean_anomaly" : "16.60639653381665",
        "mean_motion" : ".2916752021268142",
        "equinox" : "J2000"
      }
    }, {
      "links" : {
        "self" : "https://api.nasa.gov/neo/rest/v1/neo/3512284?api_key=t0TVs3DtDT2H8Oy2Zy8m2eVrNsAVKAexjcZXUckd"
      },
      "neo_reference_id" : "3512284",
      "name" : "(2010 FT)",
      "nasa_jpl_url" : "http://ssd.jpl.nasa.gov/sbdb.cgi?sstr=3512284",
      "absolute_magnitude_h" : 25.7,
      "estimated_diameter" : {
        "kilometers" : {
          "estimated_diameter_min" : 0.0192555078,
          "estimated_diameter_max" : 0.0430566244
        },
        "meters" : {
          "estimated_diameter_min" : 19.2555078188,
          "estimated_diameter_max" : 43.0566244241
        },
        "miles" : {
          "estimated_diameter_min" : 0.0119648141,
          "estimated_diameter_max" : 0.0267541378
        },
        "feet" : {
          "estimated_diameter_min" : 63.1742402722,
          "estimated_diameter_max" : 141.2618956756
        }
      },
      "is_potentially_hazardous_asteroid" : false,
      "close_approach_data" : [ {
        "close_approach_date" : "2010-11-22",
        "epoch_date_close_approach" : 1290412800000,
        "relative_velocity" : {
          "kilometers_per_second" : "6.7110908431",
          "kilometers_per_hour" : "24159.9270353271",
          "miles_per_hour" : "15012.0391070342"
        },
        "miss_distance" : {
          "astronomical" : "0.3157599574",
          "lunar" : "122.830619812",
          "kilometers" : "47237016",
          "miles" : "29351722"
        },
        "orbiting_body" : "Earth"
      } ],
      "orbital_data" : {
        "orbit_id" : "11",
        "orbit_determination_date" : "2017-04-06 08:58:05",
        "orbit_uncertainty" : "7",
        "minimum_orbit_intersection" : ".0124627",
        "jupiter_tisserand_invariant" : "5.668",
        "epoch_osculation" : "2458000.5",
        "eccentricity" : ".194490874865223",
        "semi_major_axis" : "1.089850630885894",
        "inclination" : "5.602815899637211",
        "ascending_node_longitude" : "13.83711216421768",
        "orbital_period" : "415.5745054945188",
        "perihelion_distance" : ".877884628212481",
        "perihelion_argument" : "246.0431168200161",
        "aphelion_distance" : "1.301816633559306",
        "perihelion_time" : "2457837.186063455462",
        "mean_anomaly" : "141.4740711441671",
        "mean_motion" : ".8662706572233368",
        "equinox" : "J2000"
      }
    }, {
      "links" : {
        "self" : "https://api.nasa.gov/neo/rest/v1/neo/3709081?api_key=t0TVs3DtDT2H8Oy2Zy8m2eVrNsAVKAexjcZXUckd"
      },
      "neo_reference_id" : "3709081",
      "name" : "(2015 BW510)",
      "nasa_jpl_url" : "http://ssd.jpl.nasa.gov/sbdb.cgi?sstr=3709081",
      "absolute_magnitude_h" : 20.8,
      "estimated_diameter" : {
        "kilometers" : {
          "estimated_diameter_min" : 0.1838886721,
          "estimated_diameter_max" : 0.411187571
        },
        "meters" : {
          "estimated_diameter_min" : 183.8886720703,
          "estimated_diameter_max" : 411.1875710413
        },
        "miles" : {
          "estimated_diameter_min" : 0.1142630881,
          "estimated_diameter_max" : 0.2555000322
        },
        "feet" : {
          "estimated_diameter_min" : 603.309310875,
          "estimated_diameter_max" : 1349.040630575
        }
      },
      "is_potentially_hazardous_asteroid" : false,
      "close_approach_data" : [ {
        "close_approach_date" : "2010-11-22",
        "epoch_date_close_approach" : 1290412800000,
        "relative_velocity" : {
          "kilometers_per_second" : "32.5597472454",
          "kilometers_per_hour" : "117215.0900832661",
          "miles_per_hour" : "72832.8986131272"
        },
        "miss_distance" : {
          "astronomical" : "0.4831550012",
          "lunar" : "187.9472961426",
          "kilometers" : "72278960",
          "miles" : "44912064"
        },
        "orbiting_body" : "Earth"
      } ],
      "orbital_data" : {
        "orbit_id" : "9",
        "orbit_determination_date" : "2017-04-06 08:36:01",
        "orbit_uncertainty" : "5",
        "minimum_orbit_intersection" : ".136835",
        "jupiter_tisserand_invariant" : "6.918",
        "epoch_osculation" : "2458000.5",
        "eccentricity" : ".5700431490856017",
        "semi_major_axis" : ".8287675881994978",
        "inclination" : "12.91980815672165",
        "ascending_node_longitude" : "168.2081716709804",
        "orbital_period" : "275.5799164329197",
        "perihelion_distance" : ".3563343023621769",
        "perihelion_argument" : "98.26917858457641",
        "aphelion_distance" : "1.301200874036819",
        "perihelion_time" : "2457957.596881623618",
        "mean_anomaly" : "56.04589338518406",
        "mean_motion" : "1.306336124416488",
        "equinox" : "J2000"
      }
    } ]
  }
}